NORAD_CAT_ID,OBJECT_NAME,OBJECT_TYPE,EPOCH,MEAN_MOTION,ECCENTRICITY,INCLINATION,RA_OF_ASC_NODE,ARG_OF_PERICENTER,MEAN_ANOMALY,BSTAR,MEAN_MOTION_DOT,MEAN_MOTION_DDOT,TLE_LINE0,TLE_LINE1,TLE_LINE2,SEMIMAJOR_AXIS,PERIOD,APOGEE,PERIGEE,DECAYED
55284.0,STARLINK-5337,PAYLOAD,2023-10-16 16:33:53,14.98329336,0.0003047,69.9992,90.4698,269.6768,90.4042,-7.0883e-07,-1.01e-06,0.0,0 STARLINK-5337,1 55284U 23010R   23289.69020560 -.00000101  00000-0 -70883-6 0  9998,2 55284  69.9992  90.4698 0003047 269.6768  90.4042 14.98329336 41714,6950.195,96.107,574.178,569.942,0.0
55284.0,STARLINK-5337,PAYLOAD,2023-10-17 11:47:29,14.9833504,0.0003056,69.999,88.4494,271.2123,88.8685,7.1896e-05,7.65e-06,0.0,0 STARLINK-5337,1 55284U 23010R   23290.49131926  .00000765  00000-0  71896-4 0  9994,2 55284  69.9990  88.4494 0003056 271.2123  88.8685 14.98335040 41530,6950.177,96.107,574.166,569.918,0.0
55284.0,STARLINK-5337,PAYLOAD,2023-10-17 16:35:54,14.98336253,0.0003141,69.9998,87.9447,267.8373,92.2427,7.3101e-05,7.79e-06,0.0,0 STARLINK-5337,1 55284U 23010R   23290.69159753  .00000779  00000-0  73101-4 0  9990,2 55284  69.9998  87.9447 0003141 267.8373  92.2427 14.98336253 41869,6950.174,96.107,574.222,569.856,0.0
55284.0,STARLINK-5337,PAYLOAD,2023-10-18 11:49:31,14.98322828,0.0002809,70.0005,85.9256,264.2688,95.8151,-7.7113e-05,-1.013e-05,0.0,0 STARLINK-5337,1 55284U 23010R   23291.49272837 -.00001013  00000-0 -77113-4 0  9999,2 55284  70.0005  85.9256 0002809 264.2688  95.8151 14.98322828 41683,6950.215,96.107,574.032,570.128,0.0
55284.0,STARLINK-5337,PAYLOAD,2023-10-18 16:37:55,14.98323177,0.0002809,70.0001,85.4206,264.4686,95.6153,-2.518e-05,-3.93e-06,0.0,0 STARLINK-5337,1 55284U 23010R   23291.69300753 -.00000393  00000-0 -25180-4 0  9997,2 55284  70.0001  85.4206 0002809 264.4686  95.6153 14.98323177 42015,6950.214,96.107,574.031,570.127,0.0
55284.0,STARLINK-5337,PAYLOAD,2023-10-19 03:50:56,14.9827621,0.0001765,70.0014,84.2421,261.3713,98.7246,-0.00063793,-7.685e-05,0.0,0 STARLINK-5337,1 55284U 23010R   23292.16037183 -.00007685  00000-0 -63793-3 0  9996,2 55284  70.0014  84.2421 0001765 261.3713  98.7246 14.98276210 41787,6950.359,96.11,573.451,570.997,0.0
55284.0,STARLINK-5337,PAYLOAD,2023-10-19 11:51:31,14.98335927,0.0002983,69.9993,83.4006,270.5973,89.4844,-1.3601e-05,-2.55e-06,0.0,0 STARLINK-5337,1 55284U 23010R   23292.49412001 -.00000255  00000-0 -13601-4 0  9998,2 55284  69.9993  83.4006 0002983 270.5973  89.4844 14.98335927 41831,6950.175,96.107,574.113,569.966,0.0
55284.0,STARLINK-5337,PAYLOAD,2023-10-20 11:53:33,14.98321803,0.0002868,69.9975,80.8728,265.875,94.2081,5.0126e-05,5.05e-06,0.0,0 STARLINK-5337,1 55284U 23010R   23293.49552518  .00000505  00000-0  50126-4 0  9996,2 55284  69.9975  80.8728 0002868 265.8750  94.2081 14.98321803 41986,6950.218,96.108,574.077,570.09,0.0
55284.0,STARLINK-5337,PAYLOAD,2023-10-21 11:55:34,14.98328101,0.0002371,69.9994,78.3507,265.2804,94.8084,0.00013396,1.506e-05,0.0,0 STARLINK-5337,1 55284U 23010R   23294.49692227  .00001506  00000-0  13396-3 0  9998,2 55284  69.9994  78.3507 0002371 265.2804  94.8084 14.98328101 42132,6950.199,96.107,573.712,570.416,0.0
55284.0,STARLINK-5337,PAYLOAD,2023-10-21 19:56:13,14.98344045,0.0002912,69.9988,77.5081,269.3961,90.6865,8.7253e-05,9.49e-06,0.0,0 STARLINK-5337,1 55284U 23010R   23294.83071004  .00000949  00000-0  87253-4 0  9994,2 55284  69.9988  77.5081 0002912 269.3961  90.6865 14.98344045 42184,6950.149,96.106,574.038,569.991,0.0
55284.0,STARLINK-5337,PAYLOAD,2023-10-22 02:20:46,14.98328418,0.0002607,70.001,76.8336,274.2108,85.8753,3.6426e-05,3.42e-06,0.0,0 STARLINK-5337,1 55284U 23010R   23295.09776182  .00000342  00000-0  36426-4 0  9995,2 55284  70.0010  76.8336 0002607 274.2108  85.8753 14.98328418 42220,6950.198,96.107,573.875,570.251,0.0
55284.0,STARLINK-5337,PAYLOAD,2023-10-22 11:57:35,14.98319555,0.0002808,70.0003,75.8263,269.0732,91.0105,5.0799e-05,5.13e-06,0.0,0 STARLINK-5337,1 55284U 23010R   23295.49832760  .00000513  00000-0  50799-4 0  9993,2 55284  70.0003  75.8263 0002808 269.0732  91.0105 14.98319555 42286,6950.225,96.108,574.042,570.139,0.0
55284.0,STARLINK-5337,PAYLOAD,2023-10-22 13:33:43,14.98319274,0.0002794,70.0001,75.6577,268.2851,91.7988,3.4179e-05,3.15e-06,0.0,0 STARLINK-5337,1 55284U 23010R   23295.56508844  .00000315  00000-0  34179-4 0  9998,2 55284  70.0001  75.6577 0002794 268.2851  91.7988 14.98319274 42595,6950.226,96.108,574.033,570.149,0.0
55284.0,STARLINK-5337,PAYLOAD,2023-10-22 18:22:07,14.98355712,0.0002227,70.0,75.1538,236.4708,123.6238,-0.00070328,-8.479e-05,0.0,0 STARLINK-5337,1 55284U 23010R   23295.76536465 -.00008479  00000-0 -70328-3 0  9996,2 55284  70.0000  75.1538 0002227 236.4708 123.6238 14.98355712 42326,6950.113,96.105,573.526,570.431,0.0
55284.0,STARLINK-5337,PAYLOAD,2023-10-23 02:22:48,14.9833097,0.0003035,69.9996,74.3097,272.9768,87.1044,-8.3472e-05,-1.089e-05,0.0,0 STARLINK-5337,1 55284U 23010R   23296.09916803 -.00001089  00000-0 -83472-4 0  9996,2 55284  69.9996  74.3097 0003035 272.9768  87.1044 14.98330970 42370,6950.19,96.107,574.164,569.946,0.0
55284.0,STARLINK-5337,PAYLOAD,2023-10-23 18:24:08,14.98337443,0.0003085,69.9994,72.6264,270.8347,89.2458,1.3319e-06,-7.7e-07,0.0,0 STARLINK-5337,1 55284U 23010R   23296.76675944 -.00000077  00000-0  13319-5 0  9997,2 55284  69.9994  72.6264 0003085 270.8347  89.2458 14.98337443 42475,6950.17,96.107,574.179,569.891,0.0
55284.0,STARLINK-5337,PAYLOAD,2023-10-24 12:01:37,14.98322235,0.0002993,69.9993,70.7749,267.9329,92.1487,9.1338e-05,9.97e-06,0.0,0 STARLINK-5337,1 55284U 23010R   23297.50112703  .00000997  00000-0  91338-4 0  9995,2 55284  69.9993  70.7749 0002993 267.9329  92.1487 14.98322235 42585,6950.217,96.107,574.162,570.002,0.0
55284.0,STARLINK-5337,PAYLOAD,2023-10-24 15:13:53,14.98324243,0.0003144,69.9989,70.4381,270.4241,89.6557,7.2554e-05,7.73e-06,0.0,0 STARLINK-5337,1 55284U 23010R   23297.63464684  .00000773  00000-0  72554-4 0  9998,2 55284  69.9989  70.4381 0003144 270.4241  89.6557 14.98324243 42906,6950.211,96.107,574.261,569.891,0.0
55284.0,STARLINK-5337,PAYLOAD,2023-10-25 13:39:46,14.98329824,0.0002968,69.9996,68.0824,269.6238,90.4581,-3.1725e-05,-4.72e-06,0.0,0 STARLINK-5337,1 55284U 23010R   23298.56928839 -.00000472  00000-0 -31725-4 0  9991,2 55284  69.9996  68.0824 0002968 269.6238  90.4581 14.98329824 42747,6950.193,96.107,574.121,569.996,0.0
55284.0,STARLINK-5337,PAYLOAD,2023-10-26 12:05:38,14.98335819,0.0002878,70.0,65.7249,266.5329,93.55,0.00010902,1.208e-05,0.0,0 STARLINK-5337,1 55284U 23010R   23299.50391957  .00001208  00000-0  10902-3 0  9990,2 55284  70.0000  65.7249 0002878 266.5329  93.5500 14.98335819 42889,6950.175,96.107,574.04,570.04,0.0
55284.0,STARLINK-5337,PAYLOAD,2023-10-26 13:41:46,14.98335243,0.0003045,69.9999,65.5574,271.0426,89.0384,9.7902e-05,1.075e-05,0.0,0 STARLINK-5337,1 55284U 23010R   23299.57068022  .00001075  00000-0  97902-4 0  9999,2 55284  69.9999  65.5574 0003045 271.0426  89.0384 14.98335243 43194,6950.177,96.107,574.158,569.925,0.0
55284.0,STARLINK-5337,PAYLOAD,2023-10-26 18:30:10,14.98341028,0.0002928,70.0,65.0517,267.9967,92.0856,0.00015284,1.732e-05,0.0,0 STARLINK-5337,1 55284U 23010R   23299.77095394  .00001732  00000-0  15284-3 0  9995,2 55284  70.0000  65.0517 0002928 267.9967  92.0856 14.98341028 43225,6950.159,96.106,574.059,569.989,0.0
55284.0,STARLINK-5337,PAYLOAD,2023-10-27 12:07:39,14.98333764,0.0002638,70.0013,63.2019,263.073,97.0129,6.735e-05,7.11e-06,0.0,0 STARLINK-5337,1 55284U 23010R   23300.50531823  .00000711  00000-0  67350-4 0  9999,2 55284  70.0013  63.2019 0002638 263.0730  97.0129 14.98333764 43034,6950.181,96.107,573.88,570.213,0.0
55284.0,STARLINK-5337,PAYLOAD,2023-10-27 18:32:11,14.98335163,0.0002402,70.0014,62.5299,250.194,109.896,4.93e-05,4.95e-06,0.0,0 STARLINK-5337,1 55284U 23010R   23300.77235723  .00000495  00000-0  49300-4 0  9992,2 55284  70.0014  62.5299 0002402 250.1940 109.8960 14.98335163 43373,6950.177,96.107,573.711,570.372,0.0
55284.0,STARLINK-5337,PAYLOAD,2023-10-28 10:33:32,14.98329747,0.0002701,70.0001,60.844,271.2631,88.8218,-0.00011306,-1.442e-05,0.0,0 STARLINK-5337,1 55284U 23010R   23301.43996484 -.00001442  00000-0 -11306-3 0  9993,2 55284  70.0001  60.8440 0002701 271.2631  88.8218 14.98329747 43172,6950.194,96.107,573.936,570.181,0.0
55284.0,STARLINK-5337,PAYLOAD,2023-10-28 18:34:13,14.98330002,0.0002436,70.0015,60.0028,264.5453,95.5429,-8.1097e-05,-1.06e-05,0.0,0 STARLINK-5337,1 55284U 23010R   23301.77376357 -.00001060  00000-0 -81097-4 0  9992,2 55284  70.0015  60.0028 0002436 264.5453  95.5429 14.98330002 43527,6950.193,96.107,573.751,570.365,0.0
55284.0,STARLINK-5337,PAYLOAD,2023-10-29 00:58:45,14.98335096,0.0002441,70.0018,59.3294,274.8866,85.2014,-7.3358e-05,-9.68e-06,0.0,0 STARLINK-5337,1 55284U 23010R   23302.04080050 -.00000968  00000-0 -73358-4 0  9992,2 55284  70.0018  59.3294 0002441 274.8866  85.2014 14.98335096 43269,6950.177,96.107,573.739,570.346,0.0
55284.0,STARLINK-5337,PAYLOAD,2023-10-29 13:47:49,14.9833617,0.0002618,70.0008,57.9837,264.3222,95.7638,6.1519e-05,6.41e-06,0.0,0 STARLINK-5337,1 55284U 23010R   23302.57487410  .00000641  00000-0  61519-4 0  9993,2 55284  70.0008  57.9837 0002618 264.3222  95.7638 14.98336170 43645,6950.174,96.107,573.858,570.219,0.0
55284.0,STARLINK-5337,PAYLOAD,2023-10-29 17:00:04,14.98339009,0.0002665,70.0003,57.6461,266.8743,93.2111,8.4891e-05,9.2e-06,0.0,0 STARLINK-5337,1 55284U 23010R   23302.70839110  .00000920  00000-0  84891-4 0  9994,2 55284  70.0003  57.6461 0002665 266.8743  93.2111 14.98339009 43369,6950.165,96.106,573.882,570.178,0.0
55284.0,STARLINK-5337,PAYLOAD,2023-10-30 12:13:43,14.98312756,0.0003144,70.0002,55.6258,274.4526,85.6274,2.7144e-05,2.31e-06,0.0,0 STARLINK-5337,1 55284U 23010R   23303.50952930  .00000231  00000-0  27144-4 0  9992,2 55284  70.0002  55.6258 0003144 274.4526  85.6274 14.98312756 43485,6950.246,96.108,574.296,569.926,0.0
